{
  "type": "FeatureCollection",
  "features": [
    {
      "type": "Feature",
      "properties": {
        "norad_id": 25590,
        "name": "COSMOS 2361",
        "group": "musson",
        "lat": 17.05356802417589,
        "lon": -11.20375714883717,
        "alt_km": 992.9219732494412,
        "timestamp": "2025-12-09T07:41:33.477830+00:00",
        "meta_object_name": "COSMOS 2361",
        "meta_object_id": "1998-076A",
        "meta_epoch": "2025-12-08T23:10:58.205280",
        "meta_mean_motion": 13.73216844,
        "meta_eccentricity": 0.00300628,
        "meta_inclination": 82.9338,
        "meta_ra_of_asc_node": 346.8779,
        "meta_arg_of_pericenter": 276.5709,
        "meta_mean_anomaly": 148.5033,
        "meta_ephemeris_type": 0,
        "meta_classification_type": "U",
        "meta_norad_cat_id": 25590,
        "meta_element_set_no": 999,
        "meta_rev_at_epoch": 35059,
        "meta_bstar": 7.7115596e-05,
        "meta_mean_motion_dot": 8.6e-07,
        "meta_mean_motion_ddot": 0,
        "tle_line1": "1 25590U 98076A   25342.96595145  .00000086  00000+0  77116-4 0  9990",
        "tle_line2": "2 25590  82.9338 346.8779 0030062 276.5709 148.5033 13.73216844350592"
      },
      "geometry": {
        "type": "Point",
        "coordinates": [
          -11.20375714883717,
          17.05356802417589
        ]
      }
    },
    {
      "type": "Feature",
      "properties": {
        "norad_id": 26818,
        "name": "COSMOS 2378",
        "group": "musson",
        "lat": 76.04785410453879,
        "lon": 32.24132358510558,
        "alt_km": 994.7623806955862,
        "timestamp": "2025-12-09T07:41:33.477852+00:00",
        "meta_object_name": "COSMOS 2378",
        "meta_object_id": "2001-023A",
        "meta_epoch": "2025-12-08T19:55:11.034048",
        "meta_mean_motion": 13.74141511,
        "meta_eccentricity": 0.00321841,
        "meta_inclination": 82.9273,
        "meta_ra_of_asc_node": 2.6241,
        "meta_arg_of_pericenter": 215.9787,
        "meta_mean_anomaly": 316.963,
        "meta_ephemeris_type": 0,
        "meta_classification_type": "U",
        "meta_norad_cat_id": 26818,
        "meta_element_set_no": 999,
        "meta_rev_at_epoch": 22869,
        "meta_bstar": 6.0047359e-05,
        "meta_mean_motion_dot": 7.2e-07,
        "meta_mean_motion_ddot": 0,
        "tle_line1": "1 26818U 01023A   25342.82998882  .00000072  00000+0  60047-4 0  9990",
        "tle_line2": "2 26818  82.9273   2.6241 0032184 215.9787 316.9630 13.74141511228693"
      },
      "geometry": {
        "type": "Point",
        "coordinates": [
          32.24132358510558,
          76.04785410453879
        ]
      }
    },
    {
      "type": "Feature",
      "properties": {
        "norad_id": 27436,
        "name": "COSMOS 2389",
        "group": "musson",
        "lat": -82.52405736747558,
        "lon": -121.04842542086594,
        "alt_km": 1020.9306542471159,
        "timestamp": "2025-12-09T07:41:33.477866+00:00",
        "meta_object_name": "COSMOS 2389",
        "meta_object_id": "2002-026A",
        "meta_epoch": "2025-12-08T23:40:49.146816",
        "meta_mean_motion": 13.75154006,
        "meta_eccentricity": 0.00477053,
        "meta_inclination": 82.9499,
        "meta_ra_of_asc_node": 309.7632,
        "meta_arg_of_pericenter": 70.9381,
        "meta_mean_anomaly": 349.9653,
        "meta_ephemeris_type": 0,
        "meta_classification_type": "U",
        "meta_norad_cat_id": 27436,
        "meta_element_set_no": 999,
        "meta_rev_at_epoch": 18097,
        "meta_bstar": 8.1346407e-05,
        "meta_mean_motion_dot": 9.4e-07,
        "meta_mean_motion_ddot": 0,
        "tle_line1": "1 27436U 02026A   25342.98667994  .00000094  00000+0  81346-4 0  9994",
        "tle_line2": "2 27436  82.9499 309.7632 0047705  70.9381 349.9653 13.75154006180972"
      },
      "geometry": {
        "type": "Point",
        "coordinates": [
          -121.04842542086594,
          -82.52405736747558
        ]
      }
    },
    {
      "type": "Feature",
      "properties": {
        "norad_id": 27818,
        "name": "COSMOS 2398",
        "group": "musson",
        "lat": -77.5134392177441,
        "lon": 129.20085197395508,
        "alt_km": 1016.324384631037,
        "timestamp": "2025-12-09T07:41:33.477878+00:00",
        "meta_object_name": "COSMOS 2398",
        "meta_object_id": "2003-023A",
        "meta_epoch": "2025-12-08T22:00:01.531296",
        "meta_mean_motion": 13.72385084,
        "meta_eccentricity": 0.00324483,
        "meta_inclination": 82.9482,
        "meta_ra_of_asc_node": 275.5155,
        "meta_arg_of_pericenter": 122.0308,
        "meta_mean_anomaly": 303.2785,
        "meta_ephemeris_type": 0,
        "meta_classification_type": "U",
        "meta_norad_cat_id": 27818,
        "meta_element_set_no": 999,
        "meta_rev_at_epoch": 12764,
        "meta_bstar": 8.930733e-05,
        "meta_mean_motion_dot": 9.7e-07,
        "meta_mean_motion_ddot": 0,
        "tle_line1": "1 27818U 03023A   25342.91668439  .00000097  00000+0  89307-4 0  9992",
        "tle_line2": "2 27818  82.9482 275.5155 0032448 122.0308 303.2785 13.72385084127647"
      },
      "geometry": {
        "type": "Point",
        "coordinates": [
          129.20085197395508,
          -77.5134392177441
        ]
      }
    },
    {
      "type": "Feature",
      "properties": {
        "norad_id": 28380,
        "name": "COSMOS 2407",
        "group": "musson",
        "lat": 46.182909919716074,
        "lon": -137.1781075088514,
        "alt_km": 944.5309283915894,
        "timestamp": "2025-12-09T07:41:33.477889+00:00",
        "meta_object_name": "COSMOS 2407",
        "meta_object_id": "2004-028A",
        "meta_epoch": "2025-12-08T16:00:58.962240",
        "meta_mean_motion": 13.76313059,
        "meta_eccentricity": 0.0040444,
        "meta_inclination": 82.9612,
        "meta_ra_of_asc_node": 215.9077,
        "meta_arg_of_pericenter": 65.8914,
        "meta_mean_anomaly": 346.471,
        "meta_ephemeris_type": 0,
        "meta_classification_type": "U",
        "meta_norad_cat_id": 28380,
        "meta_element_set_no": 999,
        "meta_rev_at_epoch": 7367,
        "meta_bstar": 9.5579e-05,
        "meta_mean_motion_dot": 1.09e-06,
        "meta_mean_motion_ddot": 0,
        "tle_line1": "1 28380U 04028A   25342.66734910  .00000109  00000+0  95579-4 0  9995",
        "tle_line2": "2 28380  82.9612 215.9077 0040444  65.8914 346.4710 13.76313059 73677"
      },
      "geometry": {
        "type": "Point",
        "coordinates": [
          -137.1781075088514,
          46.182909919716074
        ]
      }
    },
    {
      "type": "Feature",
      "properties": {
        "norad_id": 28521,
        "name": "COSMOS 2414",
        "group": "musson",
        "lat": 11.814391704421285,
        "lon": 5.762099699090183,
        "alt_km": 909.057909897404,
        "timestamp": "2025-12-09T07:41:33.477901+00:00",
        "meta_object_name": "COSMOS 2414",
        "meta_object_id": "2005-002A",
        "meta_epoch": "2025-12-08T22:14:11.729760",
        "meta_mean_motion": 13.87902188,
        "meta_eccentricity": 0.00406742,
        "meta_inclination": 82.9495,
        "meta_ra_of_asc_node": 187.5434,
        "meta_arg_of_pericenter": 150.3858,
        "meta_mean_anomaly": 209.9621,
        "meta_ephemeris_type": 0,
        "meta_classification_type": "U",
        "meta_norad_cat_id": 28521,
        "meta_element_set_no": 999,
        "meta_rev_at_epoch": 5742,
        "meta_bstar": 7.0394839e-05,
        "meta_mean_motion_dot": 1e-06,
        "meta_mean_motion_ddot": 0,
        "tle_line1": "1 28521U 05002A   25342.92652465  .00000100  00000+0  70395-4 0  9998",
        "tle_line2": "2 28521  82.9495 187.5434 0040674 150.3858 209.9621 13.87902188 57424"
      },
      "geometry": {
        "type": "Point",
        "coordinates": [
          5.762099699090183,
          11.814391704421285
        ]
      }
    },
    {
      "type": "Feature",
      "properties": {
        "norad_id": 32052,
        "name": "COSMOS 2429",
        "group": "musson",
        "lat": 78.60616290797486,
        "lon": 128.13931051205955,
        "alt_km": 955.8379416924572,
        "timestamp": "2025-12-09T07:41:33.477911+00:00",
        "meta_object_name": "COSMOS 2429",
        "meta_object_id": "2007-038A",
        "meta_epoch": "2025-12-08T22:29:06.638496",
        "meta_mean_motion": 13.75148759,
        "meta_eccentricity": 0.00394244,
        "meta_inclination": 82.9802,
        "meta_ra_of_asc_node": 346.1125,
        "meta_arg_of_pericenter": 48.2125,
        "meta_mean_anomaly": 312.2388,
        "meta_ephemeris_type": 0,
        "meta_classification_type": "U",
        "meta_norad_cat_id": 32052,
        "meta_element_set_no": 999,
        "meta_rev_at_epoch": 91550,
        "meta_bstar": 5.9885546e-05,
        "meta_mean_motion_dot": 7.3e-07,
        "meta_mean_motion_ddot": 0,
        "tle_line1": "1 32052U 07038A   25342.93688239  .00000073  00000+0  59886-4 0  9993",
        "tle_line2": "2 32052  82.9802 346.1125 0039424  48.2125 312.2388 13.75148759915506"
      },
      "geometry": {
        "type": "Point",
        "coordinates": [
          128.13931051205955,
          78.60616290797486
        ]
      }
    },
    {
      "type": "Feature",
      "properties": {
        "norad_id": 35635,
        "name": "COSMOS 2454",
        "group": "musson",
        "lat": -13.367953185821195,
        "lon": -7.079276670195342,
        "alt_km": 938.6126608609584,
        "timestamp": "2025-12-09T07:41:33.477923+00:00",
        "meta_object_name": "COSMOS 2454",
        "meta_object_id": "2009-039A",
        "meta_epoch": "2025-12-08T18:43:22.690272",
        "meta_mean_motion": 13.8992788,
        "meta_eccentricity": 0.00204814,
        "meta_inclination": 82.9556,
        "meta_ra_of_asc_node": 171.6466,
        "meta_arg_of_pericenter": 84.3022,
        "meta_mean_anomaly": 286.3458,
        "meta_ephemeris_type": 0,
        "meta_classification_type": "U",
        "meta_norad_cat_id": 35635,
        "meta_element_set_no": 999,
        "meta_rev_at_epoch": 83095,
        "meta_bstar": 6.8597696e-05,
        "meta_mean_motion_dot": 1.01e-06,
        "meta_mean_motion_ddot": 0,
        "tle_line1": "1 35635U 09039A   25342.78012373  .00000101  00000+0  68598-4 0  9991",
        "tle_line2": "2 35635  82.9556 171.6466 0020481  84.3022 286.3458 13.89927880830950"
      },
      "geometry": {
        "type": "Point",
        "coordinates": [
          -7.079276670195342,
          -13.367953185821195
        ]
      }
    },
    {
      "type": "Feature",
      "properties": {
        "norad_id": 36519,
        "name": "COSMOS 2463",
        "group": "musson",
        "lat": 79.18278130489864,
        "lon": 168.94234776675424,
        "alt_km": 1010.5253173103747,
        "timestamp": "2025-12-09T07:41:33.477933+00:00",
        "meta_object_name": "COSMOS 2463",
        "meta_object_id": "2010-017A",
        "meta_epoch": "2025-12-08T16:01:01.162848",
        "meta_mean_motion": 13.71648756,
        "meta_eccentricity": 0.0034885,
        "meta_inclination": 82.9616,
        "meta_ra_of_asc_node": 29.7051,
        "meta_arg_of_pericenter": 299.7752,
        "meta_mean_anomaly": 174.897,
        "meta_ephemeris_type": 0,
        "meta_classification_type": "U",
        "meta_norad_cat_id": 36519,
        "meta_element_set_no": 999,
        "meta_rev_at_epoch": 78181,
        "meta_bstar": 9.0474e-05,
        "meta_mean_motion_dot": 9.7e-07,
        "meta_mean_motion_ddot": 0,
        "tle_line1": "1 36519U 10017A   25342.66737457  .00000097  00000+0  90474-4 0  9997",
        "tle_line2": "2 36519  82.9616  29.7051 0034885 299.7752 174.8970 13.71648756781810"
      },
      "geometry": {
        "type": "Point",
        "coordinates": [
          168.94234776675424,
          79.18278130489864
        ]
      }
    }
  ]
}